{"type": "FeatureCollection", "features": [ {"type": "Feature", "properties": {"norad_id": 31073, "name": "FENGYUN 1C DEB", "group": "fengyun-1c-debris", "lat": 48.99329779443428, "lon": 39.926435152817575, "alt_km": 821.0975284487595, "timestamp": "2025-12-24T20:42:21.307203+00:00", "meta": {"OBJECT_NAME": "FENGYUN 1C DEB", "OBJECT_ID": "1999-025BFT", "EPOCH": "2025-12-24T01:33:16.645536", "MEAN_MOTION": 14.24848836, "ECCENTRICITY": 0.00447532, "INCLINATION": 99.2191, "RA_OF_ASC_NODE": 208.3236, "ARG_OF_PERICENTER": 253.6143, "MEAN_ANOMALY": 106.0112, "EPHEMERIS_TYPE": 0, "CLASSIFICATION_TYPE": "U", "NORAD_CAT_ID": 31073, "ELEMENT_SET_NO": 999, "REV_AT_EPOCH": 97244, "BSTAR": 0.0010224661, "MEAN_MOTION_DOT": 2.363e-05, "MEAN_MOTION_DDOT": 0}, "tle": {"line1": "1 31073U 99025BFT 25358.06477599  .00002363  00000+0  10225-2 0  9994", "line2": "2 31073  99.2191 208.3236 0044753 253.6143 106.0112 14.24848836972443"}}, "geometry": {"type": "Point", "coordinates": [39.926435152817575, 48.99329779443428]}}, {"type": "Feature", "properties": {"norad_id": 31074, "name": "FENGYUN 1C DEB", "group": "fengyun-1c-debris", "lat": -37.8588029544266, "lon": -79.0586963223599, "alt_km": 850.846457982364, "timestamp": "2025-12-24T20:42:21.307213+00:00", "meta": {"OBJECT_NAME": "FENGYUN 1C DEB", "OBJECT_ID": "1999-025BFU", "EPOCH": "2025-12-24T05:36:26.249760", "MEAN_MOTION": 14.14323173, "ECCENTRICITY": 0.00856221, "INCLINATION": 98.9595, "RA_OF_ASC_NODE": 273.2665, "ARG_OF_PERICENTER": 233.0669, "MEAN_ANOMALY": 126.2639, "EPHEMERIS_TYPE": 0, "CLASSIFICATION_TYPE": "U", "NORAD_CAT_ID": 31074, "ELEMENT_SET_NO": 999, "REV_AT_EPOCH": 95742, "BSTAR": 0.0019208263, "MEAN_MOTION_DOT": 3.759e-05, "MEAN_MOTION_DDOT": 0}, "tle": {"line1": "1 31074U 99025BFU 25358.23363715  .00003759  00000+0  19208-2 0  9998", "line2": "2 31074  98.9595 273.2665 0085622 233.0669 126.2639 14.14323173957420"}}, "geometry": {"type": "Point", "coordinates": [-79.0586963223599, -37.8588029544266]}}, {"type": "Feature", "properties": {"norad_id": 31078, "name": "FENGYUN 1C DEB", "group": "fengyun-1c-debris", "lat": -80.6438276230812, "lon": 130.72130798036937, "alt_km": 904.1041772255685, "timestamp": "2025-12-24T20:42:21.307223+00:00", "meta": {"OBJECT_NAME": "FENGYUN 1C DEB", "OBJECT_ID": "1999-025BFY", "EPOCH": "2025-12-15T10:54:33.357600", "MEAN_MOTION": 14.22084734, "ECCENTRICITY": 0.0117132, "INCLINATION": 98.8675, "RA_OF_ASC_NODE": 49.9086, "ARG_OF_PERICENTER": 141.0899, "MEAN_ANOMALY": 232.8229, "EPHEMERIS_TYPE": 0, "CLASSIFICATION_TYPE": "U", "NORAD_CAT_ID": 31078, "ELEMENT_SET_NO": 999, "REV_AT_EPOCH": 96931, "BSTAR": 0.00048192939, "MEAN_MOTION_DOT": 1.1e-05, "MEAN_MOTION_DDOT": 0}, "tle": {"line1": "1 31078U 99025BFY 25349.45455275  .00001100  00000+0  48193-3 0  9993", "line2": "2 31078  98.8675  49.9086 0117132 141.0899 232.8229 14.22084734969318"}}, "geometry": {"type": "Point", "coordinates": [130.72130798036937, -80.6438276230812]}}, {"type": "Feature", "properties": {"norad_id": 31081, "name": "FENGYUN 1C DEB", "group": "fengyun-1c-debris", "lat": 75.39435919997857, "lon": -21.405676479685024, "alt_km": 881.1702768425739, "timestamp": "2025-12-24T20:42:21.307235+00:00", "meta": {"OBJECT_NAME": "FENGYUN 1C DEB", "OBJECT_ID": "1999-025BGB", "EPOCH": "2025-12-23T07:05:52.274688", "MEAN_MOTION": 14.06299048, "ECCENTRICITY": 0.00478119, "INCLINATION": 98.7696, "RA_OF_ASC_NODE": 13.4015, "ARG_OF_PERICENTER": 200.9733, "MEAN_ANOMALY": 228.9859, "EPHEMERIS_TYPE": 0, "CLASSIFICATION_TYPE": "U", "NORAD_CAT_ID": 31081, "ELEMENT_SET_NO": 999, "REV_AT_EPOCH": 96609, "BSTAR": 5.9046128e-05, "MEAN_MOTION_DOT": 5.6e-07, "MEAN_MOTION_DDOT": 0}, "tle": {"line1": "1 31081U 99025BGB 25357.29574392  .00000056  00000+0  59046-4 0  9999", "line2": "2 31081  98.7696  13.4015 0047811 200.9733 228.9859 14.06299048966095"}}, "geometry": {"type": "Point", "coordinates": [-21.405676479685024, 75.39435919997857]}}, {"type": "Feature", "properties": {"norad_id": 31083, "name": "FENGYUN 1C DEB", "group": "fengyun-1c-debris", "lat": 43.8583286526354, "lon": 108.46229158004566, "alt_km": 698.4703921880728, "timestamp": "2025-12-24T20:42:21.307245+00:00", "meta": {"OBJECT_NAME": "FENGYUN 1C DEB", "OBJECT_ID": "1999-025BGD", "EPOCH": "2025-12-23T13:53:40.390080", "MEAN_MOTION": 14.6229221, "ECCENTRICITY": 0.00322035, "INCLINATION": 98.6462, "RA_OF_ASC_NODE": 115.5269, "ARG_OF_PERICENTER": 271.8765, "MEAN_ANOMALY": 218.0448, "EPHEMERIS_TYPE": 0, "CLASSIFICATION_TYPE": "U", "NORAD_CAT_ID": 31083, "ELEMENT_SET_NO": 999, "REV_AT_EPOCH": 97868, "BSTAR": 0.0027935986, "MEAN_MOTION_DOT": 0.00014175, "MEAN_MOTION_DDOT": 0}, "tle": {"line1": "1 31083U 99025BGD 25357.57893970  .00014175  00000+0  27936-2 0  9996", "line2": "2 31083  98.6462 115.5269 0032203 271.8765 218.0448 14.62292210978681"}}, "geometry": {"type": "Point", "coordinates": [108.46229158004566, 43.8583286526354]}}, {"type": "Feature", "properties": {"norad_id": 31085, "name": "FENGYUN 1C DEB", "group": "fengyun-1c-debris", "lat": -38.21066690113163, "lon": 12.890659794565789, "alt_km": 831.6963393683736, "timestamp": "2025-12-24T20:42:21.307257+00:00", "meta": {"OBJECT_NAME": "FENGYUN 1C DEB", "OBJECT_ID": "1999-025BGF", "EPOCH": "2025-12-23T07:34:38.019648", "MEAN_MOTION": 14.30315184, "ECCENTRICITY": 0.00868652, "INCLINATION": 98.9838, "RA_OF_ASC_NODE": 198.4478, "ARG_OF_PERICENTER": 347.3794, "MEAN_ANOMALY": 190.7566, "EPHEMERIS_TYPE": 0, "CLASSIFICATION_TYPE": "U", "NORAD_CAT_ID": 31085, "ELEMENT_SET_NO": 999, "REV_AT_EPOCH": 97867, "BSTAR": 9.7983281e-05, "MEAN_MOTION_DOT": 2.17e-06, "MEAN_MOTION_DDOT": 0}, "tle": {"line1": "1 31085U 99025BGF 25357.31571782  .00000217  00000+0  97983-4 0  9997", "line2": "2 31085  98.9838 198.4478 0086865 347.3794 190.7566 14.30315184978676"}}, "geometry": {"type": "Point", "coordinates": [12.890659794565789, -38.21066690113163]}}, {"type": "Feature", "properties": {"norad_id": 31087, "name": "FENGYUN 1C DEB", "group": "fengyun-1c-debris", "lat": -43.87981820895491, "lon": -168.86246228391087, "alt_km": 591.3047855262512, "timestamp": "2025-12-24T20:42:21.307267+00:00", "meta": {"OBJECT_NAME": "FENGYUN 1C DEB", "OBJECT_ID": "1999-025BGH", "EPOCH": "2025-12-23T07:34:29.688096", "MEAN_MOTION": 14.60400339, "ECCENTRICITY": 0.01716412, "INCLINATION": 98.1014, "RA_OF_ASC_NODE": 17.497, "ARG_OF_PERICENTER": 257.5874, "MEAN_ANOMALY": 118.5669, "EPHEMERIS_TYPE": 0, "CLASSIFICATION_TYPE": "U", "NORAD_CAT_ID": 31087, "ELEMENT_SET_NO": 999, "REV_AT_EPOCH": 98924, "BSTAR": 0.00076950995, "MEAN_MOTION_DOT": 4.531e-05, "MEAN_MOTION_DDOT": 0}, "tle": {"line1": "1 31087U 99025BGH 25357.31562139  .00004531  00000+0  76951-3 0  9999", "line2": "2 31087  98.1014  17.4970 0171641 257.5874 118.5669 14.60400339989248"}}, "geometry": {"type": "Point", "coordinates": [-168.86246228391087, -43.87981820895491]}}, {"type": "Feature", "properties": {"norad_id": 31088, "name": "FENGYUN 1C DEB", "group": "fengyun-1c-debris", "lat": -12.555840163505076, "lon": -122.12436053900262, "alt_km": 819.6145226698518, "timestamp": "2025-12-24T20:42:21.307279+00:00", "meta": {"OBJECT_NAME": "FENGYUN 1C DEB", "OBJECT_ID": "1999-025BGJ", "EPOCH": "2025-12-24T03:15:47.777760", "MEAN_MOTION": 14.28781548, "ECCENTRICITY": 0.00278485, "INCLINATION": 99.4106, "RA_OF_ASC_NODE": 59.209, "ARG_OF_PERICENTER": 27.9866, "MEAN_ANOMALY": 28.3634, "EPHEMERIS_TYPE": 0, "CLASSIFICATION_TYPE": "U", "NORAD_CAT_ID": 31088, "ELEMENT_SET_NO": 999, "REV_AT_EPOCH": 96712, "BSTAR": 0.0016087007, "MEAN_MOTION_DOT": 4.021e-05, "MEAN_MOTION_DDOT": 0}, "tle": {"line1": "1 31088U 99025BGJ 25358.13596965  .00004021  00000+0  16087-2 0  9992", "line2": "2 31088  99.4106  59.2090 0027848  27.9866  28.3634 14.28781548967122"}}, "geometry": {"type": "Point", "coordinates": [-122.12436053900262, -12.555840163505076]}}, {"type": "Feature", "properties": {"norad_id": 31089, "name": "FENGYUN 1C DEB", "group": "fengyun-1c-debris", "lat": -32.34913563043217, "lon": 146.16513701322717, "alt_km": 1068.2583532621275, "timestamp": "2025-12-24T20:42:21.307290+00:00", "meta": {"OBJECT_NAME": "FENGYUN 1C DEB", "OBJECT_ID": "1999-025BGK", "EPOCH": "2025-12-23T21:23:27.222720", "MEAN_MOTION": 13.88347374, "ECCENTRICITY": 0.0206307, "INCLINATION": 98.9493, "RA_OF_ASC_NODE": 139.5047, "ARG_OF_PERICENTER": 181.4128, "MEAN_ANOMALY": 331.8721, "EPHEMERIS_TYPE": 0, "CLASSIFICATION_TYPE": "U", "NORAD_CAT_ID": 31089, "ELEMENT_SET_NO": 999, "REV_AT_EPOCH": 68214, "BSTAR": 0.00070106, "MEAN_MOTION_DOT": 9.53e-06, "MEAN_MOTION_DDOT": 0}, "tle": {"line1": "1 31089U 99025BGK 25357.89128730  .00000953  00000+0  70106-3 0  9999", "line2": "2 31089  98.9493 139.5047 0206307 181.4128 331.8721 13.88347374682141"}}, "geometry": {"type": "Point", "coordinates": [146.16513701322717, -32.34913563043217]}}, {"type": "Feature", "properties": {"norad_id": 31090, "name": "FENGYUN 1C DEB", "group": "fengyun-1c-debris", "lat": -80.72512001399663, "lon": -178.86776811260174, "alt_km": 505.8233300749689, "timestamp": "2025-12-24T20:42:21.307299+00:00", "meta": {"OBJECT_NAME": "FENGYUN 1C DEB", "OBJECT_ID": "1999-025BGL", "EPOCH": "2025-12-24T00:44:50.199648", "MEAN_MOTION": 15.34603968, "ECCENTRICITY": 0.00537053, "INCLINATION": 98.983, "RA_OF_ASC_NODE": 104.4977, "ARG_OF_PERICENTER": 93.357, "MEAN_ANOMALY": 267.3814, "EPHEMERIS_TYPE": 0, "CLASSIFICATION_TYPE": "U", "NORAD_CAT_ID": 31090, "ELEMENT_SET_NO": 999, "REV_AT_EPOCH": 1011, "BSTAR": 0.0015549211, "MEAN_MOTION_DOT": 0.00054864, "MEAN_MOTION_DDOT": 0}, "tle": {"line1": "1 31090U 99025BGL 25358.03113657  .00054864  00000+0  15549-2 0  9999", "line2": "2 31090  98.9830 104.4977 0053705  93.3570 267.3814 15.34603968 10110"}}, "geometry": {"type": "Point", "coordinates": [-178.86776811260174, -80.72512001399663]}}]}